[{"OBJECT_NAME":"STARLINK-32949","OBJECT_ID":"2025-043P","EPOCH":"2025-09-23T07:55:01.000416","MEAN_MOTION":15.27627867,"ECCENTRICITY":0.0001605,"INCLINATION":43.003,"RA_OF_ASC_NODE":241.6604,"ARG_OF_PERICENTER":254.7946,"MEAN_ANOMALY":105.2729,"EPHEMERIS_TYPE":0,"CLASSIFICATION_TYPE":"U","NORAD_CAT_ID":63145,"ELEMENT_SET_NO":999,"REV_AT_EPOCH":3233,"BSTAR":0.0022657171,"MEAN_MOTION_DOT":0.00062709,"MEAN_MOTION_DDOT":0},{"OBJECT_NAME":"STARLINK-32952","OBJECT_ID":"2025-043Q","EPOCH":"2025-09-24T05:11:06.777888","MEAN_MOTION":15.27588417,"ECCENTRICITY":0.0001504,"INCLINATION":42.9977,"RA_OF_ASC_NODE":243.1821,"ARG_OF_PERICENTER":247.5168,"MEAN_ANOMALY":112.5525,"EPHEMERIS_TYPE":0,"CLASSIFICATION_TYPE":"U","NORAD_CAT_ID":63146,"ELEMENT_SET_NO":999,"REV_AT_EPOCH":3245,"BSTAR":0.0016225486,"MEAN_MOTION_DOT":0.0004467,"MEAN_MOTION_DDOT":0},{"OBJECT_NAME":"STARLINK-32936","OBJECT_ID":"2025-043R","EPOCH":"2025-09-24T06:48:58.476096","MEAN_MOTION":15.27580505,"ECCENTRICITY":0.00014221,"INCLINATION":42.999,"RA_OF_ASC_NODE":242.8529,"ARG_OF_PERICENTER":279.4393,"MEAN_ANOMALY":80.6297,"EPHEMERIS_TYPE":0,"CLASSIFICATION_TYPE":"U","NORAD_CAT_ID":63147,"ELEMENT_SET_NO":999,"REV_AT_EPOCH":3183,"BSTAR":0.001490486,"MEAN_MOTION_DOT":0.00040982,"MEAN_MOTION_DDOT":0},{"OBJECT_NAME":"STARLINK-32937","OBJECT_ID":"2025-043S","EPOCH":"2025-09-24T06:50:21.825312","MEAN_MOTION":15.2761648,"ECCENTRICITY":0.00016567,"INCLINATION":43.0013,"RA_OF_ASC_NODE":235.9301,"ARG_OF_PERICENTER":274.7642,"MEAN_ANOMALY":85.302,"EPHEMERIS_TYPE":0,"CLASSIFICATION_TYPE":"U","NORAD_CAT_ID":63148,"ELEMENT_SET_NO":999,"REV_AT_EPOCH":3191,"BSTAR":0.0026934146,"MEAN_MOTION_DOT":0.00074692,"MEAN_MOTION_DDOT":0},{"OBJECT_NAME":"STARLINK-32939","OBJECT_ID":"2025-043T","EPOCH":"2025-09-24T05:01:24.239712","MEAN_MOTION":15.27592577,"ECCENTRICITY":0.00013567,"INCLINATION":42.9975,"RA_OF_ASC_NODE":236.2216,"ARG_OF_PERICENTER":276.9745,"MEAN_ANOMALY":83.0953,"EPHEMERIS_TYPE":0,"CLASSIFICATION_TYPE":"U","NORAD_CAT_ID":63149,"ELEMENT_SET_NO":999,"REV_AT_EPOCH":3190,"BSTAR":0.0012376119,"MEAN_MOTION_DOT":0.00033964,"MEAN_MOTION_DDOT":0},{"OBJECT_NAME":"STARLINK-32919","OBJECT_ID":"2025-043U","EPOCH":"2025-09-24T06:55:54.799680","MEAN_MOTION":15.27538037,"ECCENTRICITY":0.0001591,"INCLINATION":43.0006,"RA_OF_ASC_NODE":235.9576,"ARG_OF_PERICENTER":264.343,"MEAN_ANOMALY":95.724,"EPHEMERIS_TYPE":0,"CLASSIFICATION_TYPE":"U","NORAD_CAT_ID":63150,"ELEMENT_SET_NO":999,"REV_AT_EPOCH":3191,"BSTAR":0.0022259417,"MEAN_MOTION_DOT":0.00061424,"MEAN_MOTION_DDOT":0},{"OBJECT_NAME":"STARLINK-32876","OBJECT_ID":"2025-043V","EPOCH":"2025-09-24T06:07:48.265536","MEAN_MOTION":15.27623121,"ECCENTRICITY":0.00019138,"INCLINATION":43.0024,"RA_OF_ASC_NODE":235.707,"ARG_OF_PERICENTER":269.4444,"MEAN_ANOMALY":90.6188,"EPHEMERIS_TYPE":0,"CLASSIFICATION_TYPE":"U","NORAD_CAT_ID":63151,"ELEMENT_SET_NO":999,"REV_AT_EPOCH":3191,"BSTAR":0.002176611,"MEAN_MOTION_DOT":0.00060204,"MEAN_MOTION_DDOT":0},{"OBJECT_NAME":"STARLINK-32915","OBJECT_ID":"2025-043W","EPOCH":"2025-09-24T06:50:49.209792","MEAN_MOTION":15.27620236,"ECCENTRICITY":0.00013523,"INCLINATION":42.9984,"RA_OF_ASC_NODE":242.8135,"ARG_OF_PERICENTER":265.4658,"MEAN_ANOMALY":94.6039,"EPHEMERIS_TYPE":0,"CLASSIFICATION_TYPE":"U","NORAD_CAT_ID":63152,"ELEMENT_SET_NO":999,"REV_AT_EPOCH":3183,"BSTAR":0.0015197971,"MEAN_MOTION_DOT":0.00041849,"MEAN_MOTION_DDOT":0},{"OBJECT_NAME":"STARLINK-11602 [DTC]","OBJECT_ID":"2025-048A","EPOCH":"2025-09-23T09:02:32.883072","MEAN_MOTION":15.70885497,"ECCENTRICITY":0.00013283,"INCLINATION":42.9993,"RA_OF_ASC_NODE":248.7238,"ARG_OF_PERICENTER":280.1513,"MEAN_ANOMALY":79.9205,"EPHEMERIS_TYPE":0,"CLASSIFICATION_TYPE":"U","NORAD_CAT_ID":63183,"ELEMENT_SET_NO":999,"REV_AT_EPOCH":3182,"BSTAR":0.0013615339,"MEAN_MOTION_DOT":0.00178394,"MEAN_MOTION_DDOT":0},{"OBJECT_NAME":"STARLINK-11617 [DTC]","OBJECT_ID":"2025-048B","EPOCH":"2025-09-24T00:10:30.513504","MEAN_MOTION":15.70881499,"ECCENTRICITY":0.00024096,"INCLINATION":42.9974,"RA_OF_ASC_NODE":244.847,"ARG_OF_PERICENTER":173.8852,"MEAN_ANOMALY":186.2045,"EPHEMERIS_TYPE":0,"CLASSIFICATION_TYPE":"U","NORAD_CAT_ID":63184,"ELEMENT_SET_NO":999,"REV_AT_EPOCH":3230,"BSTAR":0.0016739825,"MEAN_MOTION_DOT":0.00220534,"MEAN_MOTION_DDOT":0},{"OBJECT_NAME":"STARLINK-11618 [DTC]","OBJECT_ID":"2025-048C","EPOCH":"2025-09-24T08:00:03.000384","MEAN_MOTION":15.70800473,"ECCENTRICITY":0.00012754,"INCLINATION":43.0006,"RA_OF_ASC_NODE":242.4354,"ARG_OF_PERICENTER":262.3516,"MEAN_ANOMALY":324.2251,"EPHEMERIS_TYPE":0,"CLASSIFICATION_TYPE":"U","NORAD_CAT_ID":63185,"ELEMENT_SET_NO":999,"REV_AT_EPOCH":600,"BSTAR":0.00055959581,"MEAN_MOTION_DOT":0.00071858,"MEAN_MOTION_DDOT":0},{"OBJECT_NAME":"STARLINK-11646 [DTC]","OBJECT_ID":"2025-048D","EPOCH":"2025-09-24T06:47:09.110976","MEAN_MOTION":15.70884626,"ECCENTRICITY":0.00013923,"INCLINATION":42.9993,"RA_OF_ASC_NODE":242.5888,"ARG_OF_PERICENTER":280.3759,"MEAN_ANOMALY":79.6952,"EPHEMERIS_TYPE":0,"CLASSIFICATION_TYPE":"U","NORAD_CAT_ID":63186,"ELEMENT_SET_NO":999,"REV_AT_EPOCH":3235,"BSTAR":0.0015428513,"MEAN_MOTION_DOT":0.00202805,"MEAN_MOTION_DDOT":0},{"OBJECT_NAME":"STARLINK-11622 [DTC]","OBJECT_ID":"2025-048E","EPOCH":"2025-09-24T05:00:29.234880","MEAN_MOTION":15.70908866,"ECCENTRICITY":0.00013634,"INCLINATION":42.9998,"RA_OF_ASC_NODE":243.7816,"ARG_OF_PERICENTER":242.676,"MEAN_ANOMALY":117.3969,"EPHEMERIS_TYPE":0,"CLASSIFICATION_TYPE":"U","NORAD_CAT_ID":63187,"ELEMENT_SET_NO":999,"REV_AT_EPOCH":3233,"BSTAR":0.0023985344,"MEAN_MOTION_DOT":0.00320408,"MEAN_MOTION_DDOT":0},{"OBJECT_NAME":"STARLINK-11642 [DTC]","OBJECT_ID":"2025-048F","EPOCH":"2025-09-23T23:55:13.201248","MEAN_MOTION":15.71108814,"ECCENTRICITY":0.0002049,"INCLINATION":42.999,"RA_OF_ASC_NODE":244.7591,"ARG_OF_PERICENTER":223.2634,"MEAN_ANOMALY":136.8073,"EPHEMERIS_TYPE":0,"CLASSIFICATION_TYPE":"U","NORAD_CAT_ID":63188,"ELEMENT_SET_NO":999,"REV_AT_EPOCH":3230,"BSTAR":0.0034093516,"MEAN_MOTION_DOT":0.004678,"MEAN_MOTION_DDOT":0},{"OBJECT_NAME":"STARLINK-11639 [DTC]","OBJECT_ID":"2025-048G","EPOCH":"2025-09-24T07:17:42.208800","MEAN_MOTION":15.70981183,"ECCENTRICITY":0.0002704,"INCLINATION":43.003,"RA_OF_ASC_NODE":242.7565,"ARG_OF_PERICENTER":280.5728,"MEAN_ANOMALY":79.4835,"EPHEMERIS_TYPE":0,"CLASSIFICATION_TYPE":"U","NORAD_CAT_ID":63189,"ELEMENT_SET_NO":999,"REV_AT_EPOCH":3235,"BSTAR":0.002305114,"MEAN_MOTION_DOT":0.003084,"MEAN_MOTION_DDOT":0},{"OBJECT_NAME":"STARLINK-11637 [DTC]","OBJECT_ID":"2025-048H","EPOCH":"2025-09-24T05:01:47.564256","MEAN_MOTION":15.70961176,"ECCENTRICITY":0.00020466,"INCLINATION":43.002,"RA_OF_ASC_NODE":243.788,"ARG_OF_PERICENTER":252.9035,"MEAN_ANOMALY":107.1609,"EPHEMERIS_TYPE":0,"CLASSIFICATION_TYPE":"U","NORAD_CAT_ID":63190,"ELEMENT_SET_NO":999,"REV_AT_EPOCH":3233,"BSTAR":0.001829458,"MEAN_MOTION_DOT":0.00242507,"MEAN_MOTION_DDOT":0}]
