63145,STARLINK-32949,2025,94.26,-1.0,+,43.0,Active,0,LEO,USA,USA,Unknown,Unknown,Unknown,1 63145U 25043P   25266.32987269  .00062709  00000+0  22657-2 0  9997,2 63145  43.0030 241.6604 0001605 254.7946 105.2729 15.27627867 32331,15.27627867,0.0001605,LEO
63146,STARLINK-32952,2025,94.27,-1.0,+,43.0,Active,0,LEO,USA,USA,Unknown,Unknown,Unknown,1 63146U 25043Q   25267.21605067  .00044670  00000+0  16225-2 0  9991,2 63146  42.9977 243.1821 0001504 247.5168 112.5525 15.27588417 32457,15.27588417,0.0001504,LEO
63147,STARLINK-32936,2025,94.27,-1.0,+,43.0,Active,0,LEO,USA,USA,Unknown,Unknown,Unknown,1 63147U 25043R   25267.28401014  .00040982  00000+0  14905-2 0  9990,2 63147  42.9990 242.8529 0001422 279.4393  80.6297 15.27580505 31839,15.27580505,0.0001422,LEO
63148,STARLINK-32937,2025,94.26,-1.0,+,43.0,Active,0,LEO,USA,USA,Unknown,Unknown,Unknown,1 63148U 25043S   25267.28497483  .00074692  00000+0  26934-2 0  9996,2 63148  43.0013 235.9301 0001656 274.7642  85.3020 15.27616480 31910,15.2761648,0.0001656,LEO
63149,STARLINK-32939,2025,94.27,-1.0,+,43.0,Active,0,LEO,USA,USA,Unknown,Unknown,Unknown,1 63149U 25043T   25267.20930833  .00033964  00000+0  12376-2 0  9992,2 63149  42.9975 236.2216 0001356 276.9745  83.0953 15.27592577 31909,15.27592577,0.0001356,LEO
63150,STARLINK-32919,2025,94.27,-1.0,+,43.0,Active,0,LEO,USA,USA,Unknown,Unknown,Unknown,1 63150U 25043U   25267.28882870  .00061424  00000+0  22259-2 0  9992,2 63150  43.0006 235.9576 0001591 264.3430  95.7240 15.27538037 31917,15.27538037,0.0001591,LEO
63151,STARLINK-32876,2025,94.26,-1.0,+,43.0,Active,0,LEO,USA,USA,Unknown,Unknown,Unknown,1 63151U 25043V   25267.25541974  .00060204  00000+0  21766-2 0  9994,2 63151  43.0024 235.7070 0001913 269.4444  90.6188 15.27623121 31918,15.27623121,0.0001913,LEO
63152,STARLINK-32915,2025,94.26,-1.0,+,43.0,Active,0,LEO,USA,USA,Unknown,Unknown,Unknown,1 63152U 25043W   25267.28529178  .00041849  00000+0  15198-2 0  9996,2 63152  42.9984 242.8135 0001352 265.4658  94.6039 15.27620236 31837,15.27620236,0.0001352,LEO
63183,STARLINK-11602 [DTC],2025,91.67,-1.0,+,43.0,Active,0,LEO,USA,USA,Unknown,Unknown,Unknown,1 63183U 25048A   25266.37676948  .00178394  00000+0  13615-2 0  9990,2 63183  42.9993 248.7238 0001328 280.1513  79.9205 15.70885497 31827,15.70885497,0.0001328,LEO
63184,STARLINK-11617 [DTC],2025,91.67,-1.0,+,43.0,Active,0,LEO,USA,USA,Unknown,Unknown,Unknown,1 63184U 25048B   25267.00729761  .00220534  00000+0  16740-2 0  9990,2 63184  42.9974 244.8470 0002409 173.8852 186.2045 15.70881499 32303,15.70881499,0.0002409,LEO
63185,STARLINK-11618 [DTC],2025,91.67,-1.0,+,43.0,Active,0,LEO,USA,USA,Unknown,Unknown,Unknown,1 63185U 25048C   25267.33336806  .00071858  00000+0  55960-3 0  9992,2 63185  43.0006 242.4354 0001275 262.3516 324.2251 15.70800473  6002,15.70800473,0.0001275,LEO
63186,STARLINK-11646 [DTC],2025,91.67,-1.0,+,43.0,Active,0,LEO,USA,USA,Unknown,Unknown,Unknown,1 63186U 25048D   25267.28274434  .00202805  00000+0  15429-2 0  9998,2 63186  42.9993 242.5888 0001392 280.3759  79.6952 15.70884626 32356,15.70884626,0.0001392,LEO
63187,STARLINK-11622 [DTC],2025,91.67,-1.0,+,43.0,Active,0,LEO,USA,USA,Unknown,Unknown,Unknown,1 63187U 25048E   25267.20867170  .00320408  00000+0  23985-2 0  9992,2 63187  42.9998 243.7816 0001363 242.6760 117.3969 15.70908866 32336,15.70908866,0.0001363,LEO
63188,STARLINK-11642 [DTC],2025,91.66,-1.0,+,43.0,Active,0,LEO,USA,USA,Unknown,Unknown,Unknown,1 63188U 25048F   25266.99668057  .00467800  00000+0  34094-2 0  9992,2 63188  42.9990 244.7591 0002049 223.2634 136.8073 15.71108814 32302,15.71108814,0.0002049,LEO
63189,STARLINK-11639 [DTC],2025,91.66,-1.0,+,43.0,Active,0,LEO,USA,USA,Unknown,Unknown,Unknown,1 63189U 25048G   25267.30396075  .00308400  00000+0  23051-2 0  9998,2 63189  43.0030 242.7565 0002704 280.5728  79.4835 15.70981183 32357,15.70981183,0.0002704,LEO
63190,STARLINK-11637 [DTC],2025,91.66,-1.0,+,43.0,Active,0,LEO,USA,USA,Unknown,Unknown,Unknown,1 63190U 25048H   25267.20957829  .00242507  00000+0  18295-2 0  9998,2 63190  43.0020 243.7880 0002046 252.9035 107.1609 15.70961176 32338,15.70961176,0.0002046,LEO
